STARLINK-6366           
1 57380U 23099BE  23246.27794078 -.00002872  00000+0 -18479-4 0  9990
2 57380  42.9993 191.4260 0001551 280.9473  79.1220 15.71336113  8784
STARLINK-6371           
1 57381U 23099BF  23246.27815052 -.00010640  00000+0 -77925-4 0  9990
2 57381  42.9995 191.4258 0001735 278.1373  81.9298 15.71315767  8795
STARLINK-30240          
1 57404U 23102A   23246.30135181  .00011490  00000+0  82043-3 0  9991
2 57404  43.0018 199.4177 0001108 269.2817  90.7899 15.04500226  8084
STARLINK-30192          
1 57405U 23102B   23246.29748006  .00003039  00000+0  22789-3 0  9997
2 57405  43.0026 199.3897 0001527 257.9910 102.0762 15.04513518  8089
STARLINK-30195          
1 57406U 23102C   23246.29464528 -.00002066  00000+0 -13066-3 0  9991
2 57406  43.0011 199.3669 0001161 278.5208  81.5503 15.04482119  8080
STARLINK-30207          
1 57407U 23102D   23245.92358055  .00004048  00000+0  22932-3 0  9990
2 57407  43.0004 193.8879 0001663 262.1527  97.9131 15.14302842  8112
STARLINK-30205          
1 57408U 23102E   23246.29176469 -.00001625  00000+0 -99670-4 0  9993
2 57408  43.0026 199.3459 0000789 281.1622  78.9132 15.04484355  8082
STARLINK-30222          
1 57409U 23102F   23246.35603583  .00000530  00000+0  51798-4 0  9994
2 57409  42.9990 198.9679 0001137 273.7619  86.3094 15.04500331  8095
STARLINK-30172          
1 57410U 23102G   23246.28270712  .00000432  00000+0  44936-4 0  9999
2 57410  42.9999 199.2760 0001355 260.4690  99.5999 15.04454042  8081
STARLINK-30214          
1 57411U 23102H   23246.50001157  .00002237  00000+0  17182-3 0  9997
2 57411  42.9999 197.9325 0001584 275.4918 253.9857 15.04471578  8102
STARLINK-30182          
1 57412U 23102J   23246.21577563 -.00015256  00000+0 -10579-2 0  9994
2 57412  43.0001 199.6343 0001508 256.0251 104.0425 15.04554690  8079
STARLINK-30191          
1 57413U 23102K   23246.27823196  .00002826  00000+0  21304-3 0  9993
2 57413  43.0000 199.2437 0001086 269.2089  90.8630 15.04494534  8086
STARLINK-30193          
1 57414U 23102L   23246.14342628  .00000953  00000+0  81543-4 0  9997
2 57414  43.0017 199.9516 0001346 271.1496  88.9193 15.04491582  8063
STARLINK-30208          
1 57415U 23102M   23246.50001157  .00005657  00000+0  41192-3 0  9998
2 57415  43.0014 197.9720 0001420 263.2561 244.8953 15.04479120  7907
STARLINK-30224          
1 57416U 23102N   23245.93649603  .00001601  00000+0  12703-3 0  9990
2 57416  43.0011 200.9775 0001118 266.9173  93.1542 15.04487418  8036
STARLINK-30043          
1 57417U 23102P   23245.99803811  .00000521  00000+0  51201-4 0  9997
2 57417  43.0006 200.5794 0000823 280.4695  79.6055 15.04488776  8047
STARLINK-30221          
1 57418U 23102Q   23246.19889199  .00000531  00000+0  51854-4 0  9999
2 57418  43.0005 199.5048 0001001 266.9574  93.1154 15.04487182  8074
STARLINK-30189          
1 57430U 23105A   23246.29847784  .00001152  00000+0  95459-4 0  9990
2 57430  42.9985 212.5461 0000791 247.0230 113.0530 15.04499076  7368
STARLINK-30170          
1 57431U 23105B   23246.01944000  .00001548  00000+0  12962-3 0  9996
2 57431  42.9992 213.8933 0001117 272.1150  87.9564 15.02537808  7379
STARLINK-30188          
1 57432U 23105C   23246.21554683 -.00000091  00000+0  83504-5 0  9998
2 57432  43.0000 212.7840 0000695 253.2483 106.8283 15.02534110  7367
STARLINK-30105          
1 57433U 23105D   23246.21277388  .00039262  00000+0  17373-2 0  9992
2 57433  42.9994 211.0629 0002120 219.3539 140.7156 15.21023950  7480
STARLINK-30102          
1 57434U 23105E   23246.01056476  .00000730  00000+0  69092-4 0  9999
2 57434  42.9997 213.8256 0000900 254.3168 105.7575 15.02526496  7355
STARLINK-30180          
1 57435U 23105F   23246.01278045  .00002766  00000+0  21976-3 0  9997
2 57435  43.0000 213.8428 0001371 269.4656  90.6029 15.02533652  7466
STARLINK-30183          
1 57436U 23105G   23245.93963963  .00000475  00000+0  50196-4 0  9990
2 57436  42.9987 214.1524 0001192 268.0499  92.0206 15.02536788  7366
STARLINK-30237          
1 57437U 23105H   23245.91667824  .00038195  00000+0  28280-2 0  9993
2 57437  43.0001 214.1907 0001011 261.7536  10.0438 15.02524597  5936
STARLINK-30158          
1 57438U 23105J   23246.50001157  .00008651  00000+0  66903-3 0  9990
2 57438  42.9996 210.9353 0001392 273.7776 311.4600 15.01710400  7444
STARLINK-30173          
1 57439U 23105K   23245.91667824 -.00598662  00000+0 -25533-1 0  9994
2 57439  43.0007 210.5825 0001388 276.7429  73.1453 15.24537100  5932
STARLINK-30159          
1 57440U 23105L   23245.32913771  .00004813  00000+0  37105-3 0  9994
2 57440  43.0002 217.3115 0001609 270.8489  89.2169 15.02541509  7100
STARLINK-30160          
1 57441U 23105M   23245.80041109  .00000921  00000+0  79289-4 0  9991
2 57441  43.0001 214.8240 0001981 266.6596  93.4020 15.04486708  7177
STARLINK-30146          
1 57442U 23105N   23245.99493801  .00001250  00000+0  10237-3 0  9995
2 57442  43.0003 213.7047 0001556 277.9725  82.0941 15.04488083  7433
STARLINK-30197          
1 57443U 23105P   23245.99111202 -.00000423  00000+0 -15156-4 0  9997
2 57443  43.0000 213.6749 0001556 256.2349 103.8321 15.04481898  7432
STARLINK-30181          
1 57444U 23105Q   23246.31084432  .00005264  00000+0  38410-3 0  9992
2 57444  42.9995 211.7737 0001086 261.9989  98.0731 15.04499177  7485
STARLINK-30215          
1 57445U 23105R   23246.18652340  .00002205  00000+0  16947-3 0  9990
2 57445  42.9998 212.5621 0001156 221.7289 138.3466 15.04494997  7203
STARLINK-30162          
1 57446U 23105S   23246.50001157 -.00661298  00000+0 -24368-1 0  9990
2 57446  43.0005 206.5202 0001668 277.6452   6.1931 15.29552010  7491
STARLINK-30178          
1 57447U 23105T   23245.98267789 -.00001643  00000+0 -10097-3 0  9995
2 57447  42.9999 213.6123 0001119 282.7182  77.3536 15.04468503  7375
STARLINK-30196          
1 57448U 23105U   23245.77138169  .00000547  00000+0  52979-4 0  9998
2 57448  43.0000 214.6069 0000887 261.3435  98.7308 15.04486252  7179
STARLINK-30225          
1 57449U 23105V   23245.63093328  .00000869  00000+0  75657-4 0  9996
2 57449  42.9970 215.2747 0001840 272.8015  87.2618 15.04487572  7370
STARLINK-30217          
1 57450U 23105W   23246.31936636  .00015128  00000+0  82147-3 0  9997
2 57450  43.0009 210.1363 0001412 262.8981  97.1706 15.14330453  7443
STARLINK-30216          
1 57451U 23105X   23245.91667824  .00043063  00000+0  30231-2 0  9998
2 57451  42.9999 213.9659 0001750 261.3626 109.3219 15.04476947  6008
STARLINK-30165          
1 57457U 23107A   23246.13708246 -.00000557  00000+0 -24567-4 0  9995
2 57457  42.9996 290.6079 0001042 282.9031  77.1695 15.04485428  6590
STARLINK-30140          
1 57458U 23107B   23246.39410210  .00000611  00000+0  57499-4 0  9994
2 57458  42.9996 289.0949 0000432 235.7638 124.3164 15.04495746  6961
STARLINK-30185          
1 57459U 23107C   23246.13065664  .00001573  00000+0  12506-3 0  9993
2 57459  42.9985 290.5582 0001168 268.3619  91.7091 15.04494716  6915
STARLINK-30077          
1 57460U 23107D   23246.38631592  .00001959  00000+0  15217-3 0  9991
2 57460  42.9982 289.0377 0000466 279.6910  80.3881 15.04499175  6968
STARLINK-30229          
1 57461U 23107E   23245.86018018  .00000801  00000+0  70863-4 0  9990
2 57461  42.9998 291.9687 0000943 279.8509  80.2227 15.04487455  6879
STARLINK-30088          
1 57462U 23107F   23246.12334180 -.00000142  00000+0  45676-5 0  9996
2 57462  42.9997 290.5016 0000673 269.9916  90.0850 15.04489844  6912
STARLINK-30091          
1 57463U 23107G   23246.11604994  .00000721  00000+0  65240-4 0  9999
2 57463  42.9998 290.4469 0001154 244.6712 115.4011 15.04487249  6923
STARLINK-30115          
1 57464U 23107H   23246.31221508  .00009500  00000+0  68070-3 0  9995
2 57464  42.9983 289.3380 0001036 272.3789  87.6935 15.04518119  6946
STARLINK-30116          
1 57465U 23107J   23246.11787888  .00001727  00000+0  13591-3 0  9993
2 57465  42.9999 290.4614 0000938 278.3265  81.7472 15.04490048  6819
STARLINK-30156          
1 57466U 23107K   23245.91667824  .00395243  00000+0  28415-2 0  9997
2 57466  43.0014 282.1163 0011985  70.3041 226.9409 15.71579188  5946
STARLINK-30092          
1 57467U 23107L   23246.11115477  .00000846  00000+0  74020-4 0  9990
2 57467  42.9986 290.4105 0000838 275.6215  84.4532 15.04490618  7008
STARLINK-30039          
1 57468U 23107M   23245.83657373  .00001546  00000+0  12316-3 0  9992
2 57468  42.9999 291.7886 0000322 261.5835  98.4972 15.04490365  6778
STARLINK-30171          
1 57469U 23107N   23246.10516904  .00000116  00000+0  22691-4 0  9998
2 57469  42.9980 290.3647 0000654 284.4613  75.6158 15.04490668  6921
STARLINK-30186          
1 57470U 23107P   23246.43556627  .00000126  00000+0  23415-4 0  9998
2 57470  42.9998 288.5447 0001003 279.0110  81.0619 15.04489822  6765
STARLINK-30190          
1 57471U 23107Q   23245.91667824  .00005922  00000+0  45289-3 0  9994
2 57471  42.9989 290.9905 0001202 288.8413 298.1591 15.02553360  5886
STARLINK-30204          
1 57472U 23107R   23245.83273069  .00001221  00000+0  10035-3 0  9999
2 57472  42.9991 291.7601 0001104 279.2789  80.7929 15.04489349  6555
STARLINK-30187          
1 57473U 23107S   23246.40547747 -.00000443  00000+0 -17744-4 0  9993
2 57473  42.9999 288.3141 0001100 267.8372  92.2344 15.02538196  6970
STARLINK-30110          
1 57474U 23107T   23246.41991160 -.00001793  00000+0 -11134-3 0  9992
2 57474  43.0030 288.4240 0005072 283.9711  76.0568 15.04478445  6877
STARLINK-30155          
1 57475U 23107U   23245.81182242  .00001772  00000+0  13900-3 0  9997
2 57475  42.9990 291.6070 0000208 226.2328 133.8498 15.04491534  6786
STARLINK-30161          
1 57476U 23107V   23245.81628169  .00001181  00000+0  97553-4 0  9992
2 57476  43.0000 291.6375 0000663 261.8743  98.2025 15.04494611  6891
